ONEWEB-0492             
1 54114U 22138B   25329.44012126  .00000018  00000+0  13344-4 0  9999
2 54114  87.9208 345.5129 0002017  84.7241 275.4122 13.19724250149962
ONEWEB-0495             
1 54115U 22138C   25329.11474625  .00000013  00000+0  10249-5 0  9997
2 54115  87.9197 345.5832 0002554  93.0505 267.0920 13.19727407149907
ONEWEB-0497             
1 54116U 22138D   25329.43064160  .00000018  00000+0  13536-4 0  9998
2 54116  87.9208 345.5052 0001932  91.8021 268.3333 13.19728070149935
ONEWEB-0499             
1 54117U 22138E   25329.41406626 -.00000142  00000+0 -38773-3 0  9993
2 54117  87.9205 345.5221 0001916  97.1336 263.0014 13.19726760149944
ONEWEB-0500             
1 54118U 22138F   25329.11315753  .00000003  00000+0 -24793-4 0  9994
2 54118  87.9202 345.5691 0001792  89.1023 271.0315 13.19727852149912
ONEWEB-0501             
1 54119U 22138G   25329.44643852 -.00000236  00000+0 -62256-3 0  9999
2 54119  87.9215 345.4998 0002244  94.0543 266.0846 13.19724935149935
ONEWEB-0502             
1 54120U 22138H   25329.43222329  .00000021  00000+0  20637-4 0  9990
2 54120  87.9211 345.4846 0002099  96.7139 263.4232 13.19723585149955
ONEWEB-0503             
1 54121U 22138J   25329.11789502  .00000024  00000+0  27159-4 0  9996
2 54121  87.9211 345.5512 0001713 100.2753 259.8573 13.19728322149908
